{
 "generated_at": "2026-06-21T08:57:48Z",
 "sources": [
  {
   "name": "CelesTrak",
   "url": "https://celestrak.org/NORAD/elements/",
   "license": "frei verfügbar; Attribution. Ursprünglich USSPACECOM/Space-Track."
  },
  {
   "name": "GCAT (J. McDowell, planet4589.org)",
   "url": "https://planet4589.org/space/gcat/",
   "license": "CC-BY 4.0"
  }
 ],
 "satellites": [
  {
   "norad": 60549,
   "name": "ICEYE-X40",
   "intl": "2024-149CK",
   "group": "sar",
   "gcat": {
    "class": "B",
    "category": "IMG-R",
    "owner": "ALYAH",
    "state": "UAE"
   },
   "omm": {
    "OBJECT_NAME": "ICEYE-X40",
    "OBJECT_ID": "2024-149CK",
    "EPOCH": "2026-06-20T04:11:56.646816",
    "MEAN_MOTION": 14.97952761,
    "ECCENTRICITY": 0.00064517,
    "INCLINATION": 97.6821,
    "RA_OF_ASC_NODE": 247.6228,
    "ARG_OF_PERICENTER": 73.4508,
    "MEAN_ANOMALY": 286.7422,
    "EPHEMERIS_TYPE": 0,
    "CLASSIFICATION_TYPE": "U",
    "NORAD_CAT_ID": 60549,
    "ELEMENT_SET_NO": 999,
    "REV_AT_EPOCH": 10052,
    "BSTAR": 0.00012965842,
    "MEAN_MOTION_DOT": 0.00001471,
    "MEAN_MOTION_DDOT": 0
   }
  },
  {
   "norad": 62700,
   "name": "ICEYE-X41",
   "intl": "2025-009CV",
   "group": "sar",
   "gcat": {
    "class": "B",
    "category": "IMG-R",
    "owner": "ICEUS",
    "state": "US"
   },
   "omm": {
    "OBJECT_NAME": "ICEYE-X41",
    "OBJECT_ID": "2025-009CV",
    "EPOCH": "2026-06-20T11:30:43.919136",
    "MEAN_MOTION": 14.96766831,
    "ECCENTRICITY": 0.0001855,
    "INCLINATION": 97.7061,
    "RA_OF_ASC_NODE": 250.958,
    "ARG_OF_PERICENTER": 50.7641,
    "MEAN_ANOMALY": 309.3745,
    "EPHEMERIS_TYPE": 0,
    "CLASSIFICATION_TYPE": "U",
    "NORAD_CAT_ID": 62700,
    "ELEMENT_SET_NO": 999,
    "REV_AT_EPOCH": 7790,
    "BSTAR": 0.00021935,
    "MEAN_MOTION_DOT": 0.00002451,
    "MEAN_MOTION_DDOT": 0
   }
  },
  {
   "norad": 62698,
   "name": "ICEYE-X42",
   "intl": "2025-009CT",
   "group": "sar",
   "gcat": {
    "class": "B",
    "category": "IMG-R",
    "owner": "SP42",
    "state": "UAE"
   },
   "omm": {
    "OBJECT_NAME": "ICEYE-X42",
    "OBJECT_ID": "2025-009CT",
    "EPOCH": "2026-06-19T18:08:11.467392",
    "MEAN_MOTION": 14.91856585,
    "ECCENTRICITY": 0.00013474,
    "INCLINATION": 97.7398,
    "RA_OF_ASC_NODE": 249.0245,
    "ARG_OF_PERICENTER": 91.2636,
    "MEAN_ANOMALY": 268.8737,
    "EPHEMERIS_TYPE": 0,
    "CLASSIFICATION_TYPE": "U",
    "NORAD_CAT_ID": 62698,
    "ELEMENT_SET_NO": 999,
    "REV_AT_EPOCH": 7767,
    "BSTAR": 0.00017834804,
    "MEAN_MOTION_DOT": 0.00001746,
    "MEAN_MOTION_DDOT": 0
   }
  },
  {
   "norad": 60539,
   "name": "ICEYE-X43",
   "intl": "2024-149BZ",
   "group": "sar",
   "gcat": {
    "class": "B",
    "category": "IMG-R",
    "owner": "FAB/ICEYE",
    "state": "BR"
   },
   "omm": {
    "OBJECT_NAME": "ICEYE-X43",
    "OBJECT_ID": "2024-149BZ",
    "EPOCH": "2026-06-20T03:57:13.696704",
    "MEAN_MOTION": 14.9963455,
    "ECCENTRICITY": 0.00082954,
    "INCLINATION": 97.6791,
    "RA_OF_ASC_NODE": 248.0884,
    "ARG_OF_PERICENTER": 76.2466,
    "MEAN_ANOMALY": 283.968,
    "EPHEMERIS_TYPE": 0,
    "CLASSIFICATION_TYPE": "U",
    "NORAD_CAT_ID": 60539,
    "ELEMENT_SET_NO": 999,
    "REV_AT_EPOCH": 10056,
    "BSTAR": 0.00025550404,
    "MEAN_MOTION_DOT": 0.0000309,
    "MEAN_MOTION_DDOT": 0
   }
  },
  {
   "norad": 62707,
   "name": "ICEYE-X44",
   "intl": "2025-009DC",
   "group": "sar",
   "gcat": {
    "class": "B",
    "category": "IMG-R",
    "owner": "SP42",
    "state": "UAE"
   },
   "omm": {
    "OBJECT_NAME": "ICEYE-X44",
    "OBJECT_ID": "2025-009DC",
    "EPOCH": "2026-06-20T05:29:47.302080",
    "MEAN_MOTION": 14.96030886,
    "ECCENTRICITY": 0.0002881,
    "INCLINATION": 97.7055,
    "RA_OF_ASC_NODE": 250.3067,
    "ARG_OF_PERICENTER": 110.3466,
    "MEAN_ANOMALY": 249.8065,
    "EPHEMERIS_TYPE": 0,
    "CLASSIFICATION_TYPE": "U",
    "NORAD_CAT_ID": 62707,
    "ELEMENT_SET_NO": 999,
    "REV_AT_EPOCH": 10039,
    "BSTAR": 0.00025562,
    "MEAN_MOTION_DOT": 0.00002812,
    "MEAN_MOTION_DDOT": 0
   }
  },
  {
   "norad": 62705,
   "name": "ICEYE-X45",
   "intl": "2025-009DA",
   "group": "sar",
   "gcat": {
    "class": "B",
    "category": "IMG-R",
    "owner": "ICEUS",
    "state": "US"
   },
   "omm": {
    "OBJECT_NAME": "ICEYE-X45",
    "OBJECT_ID": "2025-009DA",
    "EPOCH": "2026-06-20T04:42:44.595936",
    "MEAN_MOTION": 15.00840975,
    "ECCENTRICITY": 0.00012479,
    "INCLINATION": 97.8328,
    "RA_OF_ASC_NODE": 257.9063,
    "ARG_OF_PERICENTER": 94.2462,
    "MEAN_ANOMALY": 265.8904,
    "EPHEMERIS_TYPE": 0,
    "CLASSIFICATION_TYPE": "U",
    "NORAD_CAT_ID": 62705,
    "ELEMENT_SET_NO": 999,
    "REV_AT_EPOCH": 7813,
    "BSTAR": 0.00018313923,
    "MEAN_MOTION_DOT": 0.00002266,
    "MEAN_MOTION_DDOT": 0
   }
  },
  {
   "norad": 63258,
   "name": "ICEYE-X46",
   "intl": "2025-052BA",
   "group": "sar",
   "gcat": {
    "class": "B",
    "category": "IMG-R",
    "owner": "ICEYE",
    "state": "FI"
   },
   "omm": {
    "OBJECT_NAME": "ICEYE-X46",
    "OBJECT_ID": "2025-052BA",
    "EPOCH": "2026-06-20T07:11:38.954688",
    "MEAN_MOTION": 14.9529545,
    "ECCENTRICITY": 0.0001664,
    "INCLINATION": 97.6887,
    "RA_OF_ASC_NODE": 63.1339,
    "ARG_OF_PERICENTER": 86.2402,
    "MEAN_ANOMALY": 273.9009,
    "EPHEMERIS_TYPE": 0,
    "CLASSIFICATION_TYPE": "U",
    "NORAD_CAT_ID": 63258,
    "ELEMENT_SET_NO": 999,
    "REV_AT_EPOCH": 6911,
    "BSTAR": 0.000091084,
    "MEAN_MOTION_DOT": 0.00000947,
    "MEAN_MOTION_DDOT": 0
   }
  },
  {
   "norad": 62389,
   "name": "ICEYE-X47",
   "intl": "2024-247N",
   "group": "sar",
   "gcat": {
    "class": "B",
    "category": "IMG-R",
    "owner": "ICEYE",
    "state": "FI"
   },
   "omm": {
    "OBJECT_NAME": "ICEYE-X47",
    "OBJECT_ID": "2024-247N",
    "EPOCH": "2026-06-19T22:01:15.868128",
    "MEAN_MOTION": 15.13293679,
    "ECCENTRICITY": 0.00024391,
    "INCLINATION": 44.9969,
    "RA_OF_ASC_NODE": 342.4147,
    "ARG_OF_PERICENTER": 259.0612,
    "MEAN_ANOMALY": 100.9991,
    "EPHEMERIS_TYPE": 0,
    "CLASSIFICATION_TYPE": "U",
    "NORAD_CAT_ID": 62389,
    "ELEMENT_SET_NO": 999,
    "REV_AT_EPOCH": 8259,
    "BSTAR": 0.0002245802,
    "MEAN_MOTION_DOT": 0.0000381,
    "MEAN_MOTION_DDOT": 0
   }
  },
  {
   "norad": 63253,
   "name": "ICEYE-X48",
   "intl": "2025-052AV",
   "group": "sar",
   "gcat": {
    "class": "B",
    "category": "IMG-R",
    "owner": "ICEUS",
    "state": "US"
   },
   "omm": {
    "OBJECT_NAME": "ICEYE-X48",
    "OBJECT_ID": "2025-052AV",
    "EPOCH": "2026-06-20T06:18:11.524896",
    "MEAN_MOTION": 14.97984966,
    "ECCENTRICITY": 0.0002347,
    "INCLINATION": 97.6885,
    "RA_OF_ASC_NODE": 63.4035,
    "ARG_OF_PERICENTER": 137.6437,
    "MEAN_ANOMALY": 222.4967,
    "EPHEMERIS_TYPE": 0,
    "CLASSIFICATION_TYPE": "U",
    "NORAD_CAT_ID": 63253,
    "ELEMENT_SET_NO": 999,
    "REV_AT_EPOCH": 6913,
    "BSTAR": 0.00019332,
    "MEAN_MOTION_DOT": 0.00002223,
    "MEAN_MOTION_DDOT": 0
   }
  }
 ]
}
