ICEYE-X43               
1 60539U 24149BZ  26171.16474186  .00003090  00000+0  25550-3 0  9998
2 60539  97.6791 248.0884 0008295  76.2466 283.9680 14.99634550100567
ICEYE-X40               
1 60549U 24149CK  26171.17496119  .00001471  00000+0  12966-3 0  9998
2 60549  97.6821 247.6228 0006451  73.4508 286.7422 14.97952761100523
ICEYE-X47               
1 62389U 24247N   26170.91754477  .00003810  00000+0  22458-3 0  9992
2 62389  44.9969 342.4147 0002439 259.0612 100.9991 15.13293679 82598
ICEYE-X42               
1 62698U 25009CT  26170.75568828  .00001746  00000+0  17835-3 0  9996
2 62698  97.7398 249.0245 0001347  91.2636 268.8737 14.91856585 77674
ICEYE-X41               
1 62700U 25009CV  26171.47967499  .00002451  00000+0  21935-3 0  9997
2 62700  97.7061 250.9580 0001855  50.7641 309.3745 14.96766831 77903
ICEYE-X45               
1 62705U 25009DA  26171.19634949  .00002266  00000+0  18314-3 0  9993
2 62705  97.8328 257.9063 0001247  94.2462 265.8904 15.00840975 78134
ICEYE-X44               
1 62707U 25009DC  26171.22901970  .00002812  00000+0  25562-3 0  9990
2 62707  97.7055 250.3067 0002881 110.3466 249.8065 14.96030886100392
ICEYE-X48               
1 63253U 25052AV  26171.26263339  .00002223  00000+0  19332-3 0  9993
2 63253  97.6885  63.4035 0002347 137.6437 222.4967 14.97984966 69136
ICEYE-X46               
1 63258U 25052BA  26171.29975642  .00000947  00000+0  91084-4 0  9994
2 63258  97.6887  63.1339 0001664  86.2402 273.9009 14.95295450 69116
